[{"OBJECT_NAME":"KINEIS-2C","OBJECT_ID":"2025-028B","EPOCH":"2026-03-09T22:20:44.060928","MEAN_MOTION":14.72317253,"ECCENTRICITY":9.527e-5,"INCLINATION":98.0273,"RA_OF_ASC_NODE":124.0949,"ARG_OF_PERICENTER":34.6076,"MEAN_ANOMALY":325.5193,"EPHEMERIS_TYPE":0,"CLASSIFICATION_TYPE":"U","NORAD_CAT_ID":62929,"ELEMENT_SET_NO":999,"REV_AT_EPOCH":5800,"BSTAR":0.00026506877,"MEAN_MOTION_DOT":1.626e-5,"MEAN_MOTION_DDOT":0},{"OBJECT_NAME":"CZ-2D DEB","OBJECT_ID":"2011-068D","EPOCH":"2026-03-08T22:54:46.215648","MEAN_MOTION":14.49433253,"ECCENTRICITY":0.01056841,"INCLINATION":98.2902,"RA_OF_ASC_NODE":72.6139,"ARG_OF_PERICENTER":106.0366,"MEAN_ANOMALY":255.2498,"EPHEMERIS_TYPE":0,"CLASSIFICATION_TYPE":"U","NORAD_CAT_ID":38176,"ELEMENT_SET_NO":999,"REV_AT_EPOCH":74721,"BSTAR":0.00078343205,"MEAN_MOTION_DOT":3.173e-5,"MEAN_MOTION_DDOT":0}]
